{
  "links": {
    "self": "http://www.neowsapp.com/rest/v1/neo/2099942?api_key=aoJTdYnX9QLpV0MRcixrSG9mthc55tJIr1l3Yri7"
  },
  "id": "2099942",
  "neo_reference_id": "2099942",
  "name": "99942 Apophis (2004 MN4)",
  "name_limited": "Apophis",
  "designation": "99942",
  "nasa_jpl_url": "http://ssd.jpl.nasa.gov/sbdb.cgi?sstr=2099942",
  "absolute_magnitude_h": 19.7,
  "estimated_diameter": {
    "kilometers": {
      "estimated_diameter_min": 0.3051792326,
      "estimated_diameter_max": 0.6824015094
    },
    "meters": {
      "estimated_diameter_min": 305.1792325939,
      "estimated_diameter_max": 682.4015094011
    },
    "miles": {
      "estimated_diameter_min": 0.1896295249,
      "estimated_diameter_max": 0.4240245083
    },
    "feet": {
      "estimated_diameter_min": 1001.2442334633,
      "estimated_diameter_max": 2238.8501681036
    }
  },
  "is_potentially_hazardous_asteroid": true,
  "close_approach_data": {
    "close_approach_date": "2029-04-13",
    "close_approach_date_full": "2029-Apr-13 21:46",
    "epoch_date_close_approach": 1870811160000,
    "relative_velocity": {
      "kilometers_per_second": "7.4225359949",
      "kilometers_per_hour": "26721.1295815929",
      "miles_per_hour": "16603.4707669626"
    },
    "miss_distance": {
      "astronomical": "0.0002540914",
      "lunar": "0.0988415546",
      "kilometers": "38011.532225318",
      "miles": "23619.2708846684"
    },
    "orbiting_body": "Earth"
  },
  "orbital_data": {
    "orbit_id": "216",
    "orbit_determination_date": "2021-06-29 11:09:44",
    "first_observation_date": "2004-03-15",
    "last_observation_date": "2021-05-12",
    "data_arc_in_days": 6267,
    "observations_used": 7300,
    "orbit_uncertainty": "0",
    "minimum_orbit_intersection": ".000244177",
    "jupiter_tisserand_invariant": "6.465",
    "epoch_osculation": "2459600.5",
    "eccentricity": ".1913839820496301",
    "semi_major_axis": ".9226958893585622",
    "inclination": "3.338951721314444",
    "ascending_node_longitude": "203.9614276677966",
    "orbital_period": "323.7325033699091",
    "perihelion_distance": ".7461066758322956",
    "perihelion_argument": "126.5959309724569",
    "aphelion_distance": "1.099285102884829",
    "perihelion_time": "2459748.288907609831",
    "mean_anomaly": "195.6544178118983",
    "mean_motion": "1.112029210081047",
    "equinox": "J2000",
    "orbit_class": {
      "orbit_class_type": "ATE",
      "orbit_class_description": "Near-Earth asteroid orbits similar to that of 2062 Aten",
      "orbit_class_range": "a (semi-major axis) < 1.0 AU; q (perihelion) > 0.983 AU"
    }
  },
  "is_sentry_object": false
}